[{"OBJECT_NAME":"SITRO-AIS 5 (KATYS)","OBJECT_ID":"2023-091L","EPOCH":"2026-03-09T22:36:44.932608","MEAN_MOTION":15.27079182,"ECCENTRICITY":0.00133776,"INCLINATION":97.5176,"RA_OF_ASC_NODE":132.0172,"ARG_OF_PERICENTER":94.5677,"MEAN_ANOMALY":265.709,"EPHEMERIS_TYPE":0,"CLASSIFICATION_TYPE":"U","NORAD_CAT_ID":57176,"ELEMENT_SET_NO":999,"REV_AT_EPOCH":14918,"BSTAR":0.00057530772,"MEAN_MOTION_DOT":0.00015262,"MEAN_MOTION_DDOT":0},{"OBJECT_NAME":"STARLINK-34149","OBJECT_ID":"2025-111T","EPOCH":"2026-03-09T00:49:36.191424","MEAN_MOTION":15.27611973,"ECCENTRICITY":0.00020155,"INCLINATION":43.0106,"RA_OF_ASC_NODE":81.5356,"ARG_OF_PERICENTER":297.0909,"MEAN_ANOMALY":62.9737,"EPHEMERIS_TYPE":0,"CLASSIFICATION_TYPE":"U","NORAD_CAT_ID":64140,"ELEMENT_SET_NO":999,"REV_AT_EPOCH":4536,"BSTAR":0.001792964,"MEAN_MOTION_DOT":0.00049457,"MEAN_MOTION_DDOT":0}]
